OBJECT_NAME,OBJECT_ID,EPOCH,MEAN_MOTION,ECCENTRICITY,INCLINATION,RA_OF_ASC_NODE,ARG_OF_PERICENTER,MEAN_ANOMALY,EPHEMERIS_TYPE,CLASSIFICATION_TYPE,NORAD_CAT_ID,ELEMENT_SET_NO,REV_AT_EPOCH,BSTAR,MEAN_MOTION_DOT,MEAN_MOTION_DDOT
BLUEWALKER-3,2022-111AL,2026-07-02T15:24:36.187200,15.38472807,.0005018,53.2306,321.4057,213.8229,146.2457,0,U,53807,999,21258,.20444E-3,.7489E-4,0
YUNHAI-1 03,2022-115A,2026-07-02T19:56:35.488320,14.32729163,.0004979,98.5536,181.7795,16.0960,344.0381,0,U,53877,999,19775,.13535E-3,.325E-5,0
CENTISPACE-1 S5,2022-126A,2026-07-02T20:47:15.939744,14.63038498,.001471,54.9976,150.2160,101.4124,258.8523,0,U,54020,999,19933,.21835E-3,.94E-5,0
CENTISPACE-1 S6,2022-126B,2026-07-02T19:10:15.831840,14.62302221,.0016527,54.9979,152.4238,101.9752,258.3095,0,U,54021,999,19928,.12844E-3,.465E-5,0
OTB-3-GAZELLE,2022-127A,2026-07-02T17:37:18.018912,14.42680326,.0013955,98.3950,175.2022,137.5990,222.6281,0,U,54023,999,19660,.70785E-4,.192E-5,0
ASO-S,2022-129A,2026-07-02T21:30:06.075360,14.52069729,.0015354,98.2749,188.7514,48.2070,312.0434,0,U,54029,999,19770,.76038E-4,.263E-5,0
HJ-2E,2022-132A,2026-07-02T20:41:32.155872,15.22546656,.0018598,97.3796,187.9579,318.3173,41.6645,0,U,54035,999,20680,.34993E-3,.8089E-4,0
COSMOS 2561,2022-137A,2026-07-02T21:29:11.476608,15.52097876,.0008651,96.9169,242.3110,336.2944,23.7910,0,U,54109,999,20878,.24122E-3,.145E-3,0
GONETS-M 23,2022-139A,2026-07-02T21:06:01.070784,12.42891478,.0021594,82.5083,338.5413,184.8943,175.1929,0,U,54150,999,16759,.10374E-3,.24E-6,0
GONETS-M 24,2022-139B,2026-07-02T20:27:14.641056,12.42892085,.0016649,82.4999,337.6071,194.6875,165.3723,0,U,54151,999,16759,.5222E-4,.17E-6,0
GONETS-M 25,2022-139C,2026-07-02T20:07:40.620576,12.42890474,.0020587,82.5065,338.3103,193.7704,166.2816,0,U,54152,999,16759,-.60943E-4,.1E-7,0
SKIF-D,2022-139D,2026-07-02T15:30:20.885184,5.00427569,.0007414,89.9494,96.6636,192.7403,167.3070,0,U,54153,999,6488,0,.14E-6,0
MATS,2022-147A,2026-07-02T17:39:26.526816,15.05453941,.0013727,97.6829,185.2652,140.5865,219.6363,0,U,54227,999,20010,.2697E-3,.3819E-4,0
JILIN-1 GAOFEN 03D54,2022-155D,2026-07-02T12:56:12.358752,16.18363848,.0011301,97.6168,338.9196,264.6371,95.3627,0,U,54254,999,20276,.81181E-3,.1363019E-1,.25559E-5
EOS-6 (OCEANSAT-3),2022-158A,2026-07-01T14:45:17.099136,14.47008826,.00004714,98.3548,280.6181,54.2776,305.8460,0,U,54361,999,18992,.90615141E-4,.286E-5,0
DONGPO 09,2022-167D,2026-07-02T20:16:10.164576,15.36689450,.0003423,97.6909,355.5542,80.2894,279.8736,0,U,54685,999,19785,.3649E-3,.12999E-3,0
DONGPO 08,2022-167E,2026-07-02T20:27:48.502944,15.33966915,.0009361,97.6875,352.6661,111.1614,249.0629,0,U,54686,999,19772,.35759E-3,.11687E-3,0
2022-167F,2022-167F,2026-07-02T21:01:31.920096,16.02223575,.0004349,97.6050,13.8424,246.7098,113.3723,0,U,54687,999,19933,.7545E-3,.433874E-2,.856E-4
DONGPO 10,2022-167H,2026-07-02T20:25:26.926176,15.34779305,.000591,97.6954,354.6530,65.7828,294.4031,0,U,54689,999,19776,.35062E-3,.11747E-3,0
JILIN-1 GAOFEN 03D48,2022-167P,2026-07-02T20:10:47.334432,15.35561497,.0007285,97.6890,354.0258,68.5389,291.6630,0,U,54695,999,19779,.3616E-3,.12429E-3,0
STAR VIBE,2023-001A,2026-07-02T20:47:14.495136,15.43054887,.0006635,97.3160,248.3970,68.8460,291.3497,0,U,55009,999,19464,.35435E-3,.15582E-3,0
BRO-8,2023-001C,2026-07-02T20:52:40.842624,15.50037391,.0006166,97.3195,249.2895,80.0569,280.1378,0,U,55011,999,19463,.62086E-3,.34872E-3,0
CONNECTA T1.2,2023-001D,2026-07-02T11:00:15.340896,15.51947793,.0005398,97.3244,254.4308,56.2389,303.9377,0,U,55012,999,19491,.76198E-3,.45878E-3,0
BIRKELAND,2023-001G,2026-07-02T20:51:14.198976,15.40357251,.0007673,97.3338,251.8809,60.1547,300.0461,0,U,55015,999,19476,.25813E-3,.10348E-3,0
ION SCV-008,2023-001AU,2026-07-02T19:36:36.257184,15.28757180,.0013615,97.5716,280.3983,321.6072,38.4198,0,U,55051,999,19372,.264E-3,.7321E-4,0
ION SCV-007,2023-001BD,2026-07-02T15:18:57.682368,14.77567355,.0010954,97.9000,246.3463,287.9246,72.0770,0,U,55060,999,18853,.80783E-4,.526E-5,0
HUYGENS,2023-001CN,2026-07-02T20:51:20.864736,15.40354232,.0009863,97.3242,251.0904,36.9409,323.2515,0,U,55093,999,19478,.25357E-3,.10169E-3,0
SHARJAHSAT-1,2023-001CZ,2026-07-02T20:55:08.230656,15.49692730,.0005984,97.3165,252.8605,59.1048,301.0791,0,U,55104,999,19492,.41812E-3,.23136E-3,0
HORUS 1,2023-025A,2026-07-02T20:27:09.679104,15.23427226,.0002401,97.3458,258.1173,131.3865,228.7579,0,U,55690,999,18643,.26066E-3,.6138E-4,0
HORUS 2,2023-032A,2026-07-02T14:57:43.024896,15.23589104,.0002225,97.3531,258.7165,91.5640,268.5852,0,U,55844,999,18383,.28044E-3,.6642E-4,0
