BLUEWALKER-3            
1 53807U 22111AL  26183.64208550  .00007489  00000+0  20444-3 0  9994
2 53807  53.2306 321.4057 0005018 213.8229 146.2457 15.38472807212589
YUNHAI-1 03             
1 53877U 22115A   26183.83096630  .00000325  00000+0  13535-3 0  9995
2 53877  98.5536 181.7795 0004979  16.0960 344.0381 14.32729163197757
CENTISPACE-1 S5         
1 54020U 22126A   26183.86615671  .00000940  00000+0  21835-3 0  9998
2 54020  54.9976 150.2160 0014710 101.4124 258.8523 14.63038498199338
CENTISPACE-1 S6         
1 54021U 22126B   26183.79879435  .00000465  00000+0  12844-3 0  9993
2 54021  54.9979 152.4238 0016527 101.9752 258.3095 14.62302221199282
OTB-3-GAZELLE           
1 54023U 22127A   26183.73423633  .00000192  00000+0  70785-4 0  9991
2 54023  98.3950 175.2022 0013955 137.5990 222.6281 14.42680326196607
ASO-S                   
1 54029U 22129A   26183.89590365  .00000263  00000+0  76038-4 0  9999
2 54029  98.2749 188.7514 0015354  48.2070 312.0434 14.52069729197700
HJ-2E                   
1 54035U 22132A   26183.86217773  .00008089  00000+0  34993-3 0  9993
2 54035  97.3796 187.9579 0018598 318.3173  41.6645 15.22546656206807
COSMOS 2561             
1 54109U 22137A   26183.89527172  .00014500  00000+0  24122-3 0  9998
2 54109  96.9169 242.3110 0008651 336.2944  23.7910 15.52097876208782
GONETS-M 23             
1 54150U 22139A   26183.87917906  .00000024  00000+0  10374-3 0  9992
2 54150  82.5083 338.5413 0021594 184.8943 175.1929 12.42891478167596
GONETS-M 24             
1 54151U 22139B   26183.85225279  .00000017  00000+0  52220-4 0  9995
2 54151  82.4999 337.6071 0016649 194.6875 165.3723 12.42892085167598
GONETS-M 25             
1 54152U 22139C   26183.83866459  .00000001  00000+0 -60943-4 0  9990
2 54152  82.5065 338.3103 0020587 193.7704 166.2816 12.42890474167598
SKIF-D                  
1 54153U 22139D   26183.64607506  .00000014  00000+0  00000+0 0  9992
2 54153  89.9494  96.6636 0007414 192.7403 167.3070  5.00427569 64889
MATS                    
1 54227U 22147A   26183.73572369  .00003819  00000+0  26970-3 0  9995
2 54227  97.6829 185.2652 0013727 140.5865 219.6363 15.05453941200101
JILIN-1 GAOFEN 03D54    
1 54254U 22155D   26183.53903193  .01363019  25559-5  81181-3 0  9994
2 54254  97.6168 338.9196 0011301 264.6371  95.3627 16.18363848202760
EOS-6 (OCEANSAT-3)      
1 54361U 22158A   26182.61478124  .00000286  00000+0  90615-4 0  9999
2 54361  98.3548 280.6181 0000471  54.2776 305.8460 14.47008826189922
DONGPO 09               
1 54685U 22167D   26183.84456209  .00012999  00000+0  36490-3 0  9998
2 54685  97.6909 355.5542 0003423  80.2894 279.8736 15.36689450197851
DONGPO 08               
1 54686U 22167E   26183.85264471  .00011687  00000+0  35759-3 0  9998
2 54686  97.6875 352.6661 0009361 111.1614 249.0629 15.33966915197722
2022-167F               
1 54687U 22167F   26183.87606389  .00433874  85600-4  75450-3 0  9991
2 54687  97.6050  13.8424 0004349 246.7098 113.3723 16.02223575199335
DONGPO 10               
1 54689U 22167H   26183.85100609  .00011747  00000+0  35062-3 0  9997
2 54689  97.6954 354.6530 0005910  65.7828 294.4031 15.34779305197768
JILIN-1 GAOFEN 03D48    
1 54695U 22167P   26183.84082563  .00012429  00000+0  36160-3 0  9999
2 54695  97.6890 354.0258 0007285  68.5389 291.6630 15.35561497197794
STAR VIBE               
1 55009U 23001A   26183.86613999  .00015582  00000+0  35435-3 0  9999
2 55009  97.3160 248.3970 0006635  68.8460 291.3497 15.43054887194646
BRO-8                   
1 55011U 23001C   26183.86991716  .00034872  00000+0  62086-3 0  9993
2 55011  97.3195 249.2895 0006166  80.0569 280.1378 15.50037391194630
CONNECTA T1.2           
1 55012U 23001D   26183.45851089  .00045878  00000+0  76198-3 0  9994
2 55012  97.3244 254.4308 0005398  56.2389 303.9377 15.51947793194915
BIRKELAND               
1 55015U 23001G   26183.86891434  .00010348  00000+0  25813-3 0  9992
2 55015  97.3338 251.8809 0007673  60.1547 300.0461 15.40357251194764
ION SCV-008             
1 55051U 23001AU  26183.81708631  .00007321  00000+0  26400-3 0  9993
2 55051  97.5716 280.3983 0013615 321.6072  38.4198 15.28757180193722
ION SCV-007             
1 55060U 23001BD  26183.63816762  .00000526  00000+0  80783-4 0  9993
2 55060  97.9000 246.3463 0010954 287.9246  72.0770 14.77567355188536
HUYGENS                 
1 55093U 23001CN  26183.86899149  .00010169  00000+0  25357-3 0  9993
2 55093  97.3242 251.0904 0009863  36.9409 323.2515 15.40354232194788
SHARJAHSAT-1            
1 55104U 23001CZ  26183.87162304  .00023136  00000+0  41812-3 0  9995
2 55104  97.3165 252.8605 0005984  59.1048 301.0791 15.49692730194921
HORUS 1                 
1 55690U 23025A   26183.85219536  .00006138  00000+0  26066-3 0  9996
2 55690  97.3458 258.1173 0002401 131.3865 228.7579 15.23427226186430
HORUS 2                 
1 55844U 23032A   26183.62341464  .00006642  00000+0  28044-3 0  9994
2 55844  97.3531 258.7165 0002225  91.5640 268.5852 15.23589104183833
